{
  "type": "FeatureCollection",
  "features": [
    {
      "type": "Feature",
      "properties": {
        "norad_id": 66878,
        "name": "STARLINK-35866",
        "group": "last-30-days",
        "lat": -32.0668636659553,
        "lon": -25.464080078172202,
        "alt_km": 410.5404483236698,
        "timestamp": "2025-12-27T02:10:14.908605+00:00",
        "meta_object_name": "STARLINK-35866",
        "meta_object_id": "2025-283A",
        "meta_epoch": "2025-12-26T20:00:01.999008",
        "meta_mean_motion": 15.54844624,
        "meta_eccentricity": 0.0001246,
        "meta_inclination": 53.1595,
        "meta_ra_of_asc_node": 3.7899,
        "meta_arg_of_pericenter": 100.1315,
        "meta_mean_anomaly": 219.0226,
        "meta_ephemeris_type": 0,
        "meta_classification_type": "U",
        "meta_norad_cat_id": 66878,
        "meta_element_set_no": 999,
        "meta_rev_at_epoch": 469,
        "meta_bstar": -0.032978,
        "meta_mean_motion_dot": -0.02002462,
        "meta_mean_motion_ddot": 0,
        "tle_line1": "1 66878U 25283A   25360.83335647 -.02002462  00000+0 -32978-1 0  9997",
        "tle_line2": "2 66878  53.1595   3.7899 0001246 100.1315 219.0226 15.54844624  4699"
      },
      "geometry": {
        "type": "Point",
        "coordinates": [
          -25.464080078172202,
          -32.0668636659553
        ]
      }
    },
    {
      "type": "Feature",
      "properties": {
        "norad_id": 66879,
        "name": "STARLINK-35749",
        "group": "last-30-days",
        "lat": -29.32632132776258,
        "lon": -22.367498802391207,
        "alt_km": 410.3723223710649,
        "timestamp": "2025-12-27T02:10:14.908616+00:00",
        "meta_object_name": "STARLINK-35749",
        "meta_object_id": "2025-283B",
        "meta_epoch": "2025-12-26T20:00:01.999008",
        "meta_mean_motion": 15.54844355,
        "meta_eccentricity": 0.0001377,
        "meta_inclination": 53.1593,
        "meta_ra_of_asc_node": 3.781,
        "meta_arg_of_pericenter": 97.4136,
        "meta_mean_anomaly": 225.5732,
        "meta_ephemeris_type": 0,
        "meta_classification_type": "U",
        "meta_norad_cat_id": 66879,
        "meta_element_set_no": 999,
        "meta_rev_at_epoch": 469,
        "meta_bstar": -0.03298,
        "meta_mean_motion_dot": -0.02002622,
        "meta_mean_motion_ddot": 0,
        "tle_line1": "1 66879U 25283B   25360.83335647 -.02002622  00000+0 -32980-1 0  9999",
        "tle_line2": "2 66879  53.1593   3.7810 0001377  97.4136 225.5732 15.54844355  4690"
      },
      "geometry": {
        "type": "Point",
        "coordinates": [
          -22.367498802391207,
          -29.32632132776258
        ]
      }
    },
    {
      "type": "Feature",
      "properties": {
        "norad_id": 66880,
        "name": "STARLINK-35844",
        "group": "last-30-days",
        "lat": -30.704826229456636,
        "lon": -23.892046880171385,
        "alt_km": 410.41176721577176,
        "timestamp": "2025-12-27T02:10:14.908626+00:00",
        "meta_object_name": "STARLINK-35844",
        "meta_object_id": "2025-283C",
        "meta_epoch": "2025-12-26T20:00:01.999008",
        "meta_mean_motion": 15.54845357,
        "meta_eccentricity": 0.0001211,
        "meta_inclination": 53.1595,
        "meta_ra_of_asc_node": 3.7859,
        "meta_arg_of_pericenter": 99.0765,
        "meta_mean_anomaly": 221.9943,
        "meta_ephemeris_type": 0,
        "meta_classification_type": "U",
        "meta_norad_cat_id": 66880,
        "meta_element_set_no": 999,
        "meta_rev_at_epoch": 469,
        "meta_bstar": -0.033008,
        "meta_mean_motion_dot": -0.02004075,
        "meta_mean_motion_ddot": 0,
        "tle_line1": "1 66880U 25283C   25360.83335647 -.02004075  00000+0 -33008-1 0  9997",
        "tle_line2": "2 66880  53.1595   3.7859 0001211  99.0765 221.9943 15.54845357  4697"
      },
      "geometry": {
        "type": "Point",
        "coordinates": [
          -23.892046880171385,
          -30.704826229456636
        ]
      }
    },
    {
      "type": "Feature",
      "properties": {
        "norad_id": 66881,
        "name": "STARLINK-35860",
        "group": "last-30-days",
        "lat": -27.928623623461505,
        "lon": -20.880761156245253,
        "alt_km": 410.18767710834527,
        "timestamp": "2025-12-27T02:10:14.908641+00:00",
        "meta_object_name": "STARLINK-35860",
        "meta_object_id": "2025-283D",
        "meta_epoch": "2025-12-26T20:00:01.999008",
        "meta_mean_motion": 15.5484214,
        "meta_eccentricity": 0.0001258,
        "meta_inclination": 53.1593,
        "meta_ra_of_asc_node": 3.7768,
        "meta_arg_of_pericenter": 96.5073,
        "meta_mean_anomaly": 228.3964,
        "meta_ephemeris_type": 0,
        "meta_classification_type": "U",
        "meta_norad_cat_id": 66881,
        "meta_element_set_no": 999,
        "meta_rev_at_epoch": 469,
        "meta_bstar": -0.032901,
        "meta_mean_motion_dot": -0.019981,
        "meta_mean_motion_ddot": 0,
        "tle_line1": "1 66881U 25283D   25360.83335647 -.01998100  00000+0 -32901-1 0  9999",
        "tle_line2": "2 66881  53.1593   3.7768 0001258  96.5073 228.3964 15.54842140  4691"
      },
      "geometry": {
        "type": "Point",
        "coordinates": [
          -20.880761156245253,
          -27.928623623461505
        ]
      }
    },
    {
      "type": "Feature",
      "properties": {
        "norad_id": 66882,
        "name": "STARLINK-35912",
        "group": "last-30-days",
        "lat": -26.51330519525269,
        "lon": -19.42943885433869,
        "alt_km": 410.07682822907736,
        "timestamp": "2025-12-27T02:10:14.908652+00:00",
        "meta_object_name": "STARLINK-35912",
        "meta_object_id": "2025-283E",
        "meta_epoch": "2025-12-26T20:00:01.999008",
        "meta_mean_motion": 15.54846345,
        "meta_eccentricity": 0.0001237,
        "meta_inclination": 53.1595,
        "meta_ra_of_asc_node": 3.7733,
        "meta_arg_of_pericenter": 98.1172,
        "meta_mean_anomaly": 228.7045,
        "meta_ephemeris_type": 0,
        "meta_classification_type": "U",
        "meta_norad_cat_id": 66882,
        "meta_element_set_no": 999,
        "meta_rev_at_epoch": 469,
        "meta_bstar": -0.033067,
        "meta_mean_motion_dot": -0.02007415,
        "meta_mean_motion_ddot": 0,
        "tle_line1": "1 66882U 25283E   25360.83335647 -.02007415  00000+0 -33067-1 0  9995",
        "tle_line2": "2 66882  53.1595   3.7733 0001237  98.1172 228.7045 15.54846345  4696"
      },
      "geometry": {
        "type": "Point",
        "coordinates": [
          -19.42943885433869,
          -26.51330519525269
        ]
      }
    },
    {
      "type": "Feature",
      "properties": {
        "norad_id": 66883,
        "name": "STARLINK-35947",
        "group": "last-30-days",
        "lat": -25.084491056732393,
        "lon": -18.014149575024756,
        "alt_km": 409.99950777151207,
        "timestamp": "2025-12-27T02:10:14.908662+00:00",
        "meta_object_name": "STARLINK-35947",
        "meta_object_id": "2025-283F",
        "meta_epoch": "2025-12-26T20:00:01.999008",
        "meta_mean_motion": 15.5484907,
        "meta_eccentricity": 0.0001237,
        "meta_inclination": 53.1599,
        "meta_ra_of_asc_node": 3.7701,
        "meta_arg_of_pericenter": 103.2508,
        "meta_mean_anomaly": 225.4873,
        "meta_ephemeris_type": 0,
        "meta_classification_type": "U",
        "meta_norad_cat_id": 66883,
        "meta_element_set_no": 999,
        "meta_rev_at_epoch": 474,
        "meta_bstar": -0.033146,
        "meta_mean_motion_dot": -0.02011874,
        "meta_mean_motion_ddot": 0,
        "tle_line1": "1 66883U 25283F   25360.83335647 -.02011874  00000+0 -33146-1 0  9998",
        "tle_line2": "2 66883  53.1599   3.7701 0001237 103.2508 225.4873 15.54849070  4744"
      },
      "geometry": {
        "type": "Point",
        "coordinates": [
          -18.014149575024756,
          -25.084491056732393
        ]
      }
    },
    {
      "type": "Feature",
      "properties": {
        "norad_id": 66884,
        "name": "STARLINK-36057",
        "group": "last-30-days",
        "lat": -22.18884107024449,
        "lon": -15.283836061805735,
        "alt_km": 409.59939532243334,
        "timestamp": "2025-12-27T02:10:14.908674+00:00",
        "meta_object_name": "STARLINK-36057",
        "meta_object_id": "2025-283G",
        "meta_epoch": "2025-12-26T20:00:01.999008",
        "meta_mean_motion": 15.5484874,
        "meta_eccentricity": 0.0001003,
        "meta_inclination": 53.1595,
        "meta_ra_of_asc_node": 3.7608,
        "meta_arg_of_pericenter": 100.8241,
        "meta_mean_anomaly": 231.7473,
        "meta_ephemeris_type": 0,
        "meta_classification_type": "U",
        "meta_norad_cat_id": 66884,
        "meta_element_set_no": 999,
        "meta_rev_at_epoch": 469,
        "meta_bstar": -0.033108,
        "meta_mean_motion_dot": -0.02009641,
        "meta_mean_motion_ddot": 0,
        "tle_line1": "1 66884U 25283G   25360.83335647 -.02009641  00000+0 -33108-1 0  9996",
        "tle_line2": "2 66884  53.1595   3.7608 0001003 100.8241 231.7473 15.54848740  4698"
      },
      "geometry": {
        "type": "Point",
        "coordinates": [
          -15.283836061805735,
          -22.18884107024449
        ]
      }
    }
  ]
}